[{"OBJECT_NAME":"STARLINK-5050","OBJECT_ID":"2022-119E","EPOCH":"2026-03-09T22:09:50.817312","MEAN_MOTION":15.08836351,"ECCENTRICITY":0.00012955,"INCLINATION":53.2178,"RA_OF_ASC_NODE":287.8552,"ARG_OF_PERICENTER":89.5549,"MEAN_ANOMALY":270.5592,"EPHEMERIS_TYPE":0,"CLASSIFICATION_TYPE":"U","NORAD_CAT_ID":53890,"ELEMENT_SET_NO":999,"REV_AT_EPOCH":19221,"BSTAR":2.9532544e-5,"MEAN_MOTION_DOT":1.82e-6,"MEAN_MOTION_DDOT":0},{"OBJECT_NAME":"ATLAS D R\/B","OBJECT_ID":"1965-078B","EPOCH":"2026-03-09T20:46:56.586144","MEAN_MOTION":13.36861601,"ECCENTRICITY":0.09711083,"INCLINATION":144.2243,"RA_OF_ASC_NODE":158.6484,"ARG_OF_PERICENTER":223.7615,"MEAN_ANOMALY":128.1873,"EPHEMERIS_TYPE":0,"CLASSIFICATION_TYPE":"U","NORAD_CAT_ID":1616,"ELEMENT_SET_NO":999,"REV_AT_EPOCH":73741,"BSTAR":0.00067418119,"MEAN_MOTION_DOT":7.934e-5,"MEAN_MOTION_DDOT":0}]
